NANOSATC-BR1            
1 40024U 14033Q   26068.98267556  .00020336  00000+0  74295-3 0  9994
2 40024  98.0845  92.7804 0004644 147.6715 212.4808 15.28136801638811
STARLINK-31391          
1 59406U 24064J   26068.39356028  .00004301  00000+0  16572-3 0  9999
2 59406  42.9991  57.5725 0001106 299.6128  60.4613 15.27576019109188
